{"version": 0.6, "generator": "Overpass API 0.7.62.5 1bd436f1", "osm3s": {"timestamp_osm_base": "2025-03-13T04:41:37Z", "copyright": "The data included in this document is from www.openstreetmap.org. The data is made available under ODbL."}, "elements": [{"type": "node", "id": 1546903143, "lat": 3.0601184, "lon": 101.6735624, "tags": {"amenity": "recycling"}}, {"type": "node", "id": 1805704160, "lat": 3.1331024, "lon": 101.6949245}, {"type": "node", "id": 1805704206, "lat": 3.1330206, "lon": 101.6949612}, {"type": "node", "id": 1805704209, "lat": 3.1331291, "lon": 101.6950008}, {"type": "node", "id": 1805704212, "lat": 3.1331161, "lon": 101.6950188}, {"type": "node", "id": 1805704265, "lat": 3.1330783, "lon": 101.6950344}, {"type": "node", "id": 1805704272, "lat": 3.1330993, "lon": 101.6950298}, {"type": "node", "id": 1805704286, "lat": 3.1330482, "lon": 101.6949259}, {"type": "node", "id": 1805704318, "lat": 3.1330292, "lon": 101.694943}, {"type": "node", "id": 1805704328, "lat": 3.1330436, "lon": 101.6950242}, {"type": "node", "id": 1805704330, "lat": 3.1331342, "lon": 101.6949813}, {"type": "node", "id": 1805704334, "lat": 3.1330631, "lon": 101.69492}, {"type": "node", "id": 1805704337, "lat": 3.1330207, "lon": 101.6949918}, {"type": "node", "id": 1805704342, "lat": 3.1330188, "lon": 101.6949813}, {"type": "node", "id": 1805704364, "lat": 3.1330831, "lon": 101.6949188}, {"type": "node", "id": 1805704368, "lat": 3.1331226, "lon": 101.6949412}, {"type": "node", "id": 1805704376, "lat": 3.1330584, "lon": 101.6950315}, {"type": "node", "id": 1805704386, "lat": 3.1331318, "lon": 101.6949591}, {"type": "node", "id": 1805704392, "lat": 3.1330293, "lon": 101.69501}, {"type": "node", "id": 3630553155, "lat": 3.1246694, "lon": 101.6612641}, {"type": "node", "id": 3630553156, "lat": 3.1246321, "lon": 101.6612633}, {"type": "node", "id": 3630553157, "lat": 3.1246313, "lon": 101.6613044}, {"type": "node", "id": 3630553158, "lat": 3.1246685, "lon": 101.6613052}, {"type": "node", "id": 3641988005, "lat": 3.1266127, "lon": 101.6614725}, {"type": "node", "id": 3641988006, "lat": 3.1265718, "lon": 101.661465}, {"type": "node", "id": 3641988007, "lat": 3.1265646, "lon": 101.6615043}, {"type": "node", "id": 3641988008, "lat": 3.1266055, "lon": 101.6615118}, {"type": "node", "id": 4336477789, "lat": 3.1427673, "lon": 101.698525, "tags": {"amenity": "recycling", "recycling_type": "container"}}, {"type": "node", "id": 4625323086, "lat": 3.0967548, "lon": 101.6776981, "tags": {"amenity": "recycling", "recycling:clothes": "yes", "recycling_type": "container"}}, {"type": "node", "id": 6499211079, "lat": 3.189447, "lon": 101.6862931}, {"type": "node", "id": 6499211080, "lat": 3.1894802, "lon": 101.6862358}, {"type": "node", "id": 6499211081, "lat": 3.1893529, "lon": 101.6861619}, {"type": "node", "id": 6499211082, "lat": 3.1893197, "lon": 101.6862192}, {"type": "node", "id": 7320807763, "lat": 3.2100026, "lon": 101.6686802, "tags": {"access": "private", "amenity": "waste_disposal", "waste": "mixed"}}, {"type": "node", "id": 7520838666, "lat": 3.1828055, "lon": 101.6320899}, {"type": "node", "id": 7520838667, "lat": 3.1828264, "lon": 101.6324612}, {"type": "node", "id": 7520838668, "lat": 3.1828964, "lon": 101.6325662}, {"type": "node", "id": 7520838669, "lat": 3.1831575, "lon": 101.6325265}, {"type": "node", "id": 7520838670, "lat": 3.1831365, "lon": 101.6320175}, {"type": "node", "id": 7520856892, "lat": 3.1871153, "lon": 101.6320862}, {"type": "node", "id": 7520856893, "lat": 3.1871571, "lon": 101.632045}, {"type": "node", "id": 7520856894, "lat": 3.1872267, "lon": 101.6321159}, {"type": "node", "id": 7520856895, "lat": 3.1871848, "lon": 101.6321571}, {"type": "node", "id": 8176726901, "lat": 3.1179097, "lon": 101.7188258, "tags": {"amenity": "recycling", "recycling:clothes": "yes", "recycling:shoes": "yes", "recycling_type": "container"}}, {"type": "node", "id": 8377810685, "lat": 3.2103889, "lon": 101.6676436, "tags": {"amenity": "recycling", "name": "Bin 3", "name:en": "Bin 3", "operator": "Community Recycle for Charity (CRC)", "recycling:cans": "yes", "recycling:cardboard": "yes", "recycling:glass_bottles": "yes", "recycling:paper": "yes", "recycling:plastic": "yes", "recycling_type": "container", "website": "http://crcbox.org/"}}, {"type": "node", "id": 8377810686, "lat": 3.2101989, "lon": 101.6684469, "tags": {"amenity": "recycling", "name": "Bin 4", "name:en": "Bin 4", "operator": "Community Recycle for Charity (CRC)", "recycling:cans": "yes", "recycling:cardboard": "yes", "recycling:glass_bottles": "yes", "recycling:paper": "yes", "recycling:plastic": "yes", "recycling_type": "container", "website": "http://crcbox.org/"}}, {"type": "node", "id": 8377810687, "lat": 3.2093297, "lon": 101.6674326, "tags": {"amenity": "recycling", "name": "Bin 2", "name:en": "Bin 2", "operator": "Community Recycle for Charity (CRC)", "recycling:cans": "yes", "recycling:cardboard": "yes", "recycling:glass_bottles": "yes", "recycling:paper": "yes", "recycling:plastic": "yes", "recycling_type": "container", "website": "http://crcbox.org/"}}, {"type": "node", "id": 8377810688, "lat": 3.2087435, "lon": 101.6685551, "tags": {"amenity": "recycling", "name": "Bin 1", "name:en": "Bin 1", "operator": "Community Recycle for Charity (CRC)", "recycling:cans": "yes", "recycling:cardboard": "yes", "recycling:glass_bottles": "yes", "recycling:paper": "yes", "recycling:plastic": "yes", "recycling_type": "container", "website": "http://crcbox.org/"}}, {"type": "node", "id": 8937147069, "lat": 3.2025133, "lon": 101.7295531, "tags": {"amenity": "recycling", "recycling_type": "container"}}, {"type": "node", "id": 8937147079, "lat": 3.2024973, "lon": 101.7294224, "tags": {"amenity": "waste_disposal"}}, {"type": "node", "id": 8995130713, "lat": 3.1202846, "lon": 101.73709, "tags": {"amenity": "recycling", "recycling_type": "container"}}, {"type": "node", "id": 9197001726, "lat": 3.1268318, "lon": 101.6605908}, {"type": "node", "id": 9197001727, "lat": 3.1268268, "lon": 101.6606448}, {"type": "node", "id": 9197001728, "lat": 3.1267769, "lon": 101.6606402}, {"type": "node", "id": 9197001729, "lat": 3.1267819, "lon": 101.6605862}, {"type": "node", "id": 9197002589, "lat": 3.1190918, "lon": 101.6532104}, {"type": "node", "id": 9197002590, "lat": 3.1190953, "lon": 101.6532659}, {"type": "node", "id": 9197002591, "lat": 3.1190622, "lon": 101.653268}, {"type": "node", "id": 9197002592, "lat": 3.1190587, "lon": 101.6532126}, {"type": "node", "id": 9197014262, "lat": 3.1290411, "lon": 101.6602174, "tags": {"amenity": "recycling", "recycling_type": "container"}}, {"type": "node", "id": 9197053260, "lat": 3.1297181, "lon": 101.6611877}, {"type": "node", "id": 9197105432, "lat": 3.1245551, "lon": 101.660322, "tags": {"amenity": "recycling", "operator": "Universiti Malaya", "operator:short": "UM", "operator:type": "university", "operator:wikidata": "Q1142924", "recycling_type": "container"}}, {"type": "node", "id": 9342500739, "lat": 3.1985291, "lon": 101.6772031}, {"type": "node", "id": 9342500740, "lat": 3.1983282, "lon": 101.6772591}, {"type": "node", "id": 9342500741, "lat": 3.1983666, "lon": 101.677468}, {"type": "node", "id": 9342500742, "lat": 3.1984806, "lon": 101.6774468}, {"type": "node", "id": 9342500743, "lat": 3.1985966, "lon": 101.6774384}, {"type": "node", "id": 9494194464, "lat": 3.2199849, "lon": 101.6714614, "tags": {"amenity": "recycling", "recycling_type": "container"}}, {"type": "node", "id": 9503857926, "lat": 3.1318396, "lon": 101.6506776}, {"type": "node", "id": 9503857927, "lat": 3.1318376, "lon": 101.6507396}, {"type": "node", "id": 9503857928, "lat": 3.1317941, "lon": 101.6507381}, {"type": "node", "id": 9503857929, "lat": 3.1317961, "lon": 101.6506762}, {"type": "node", "id": 9504821704, "lat": 3.2104255, "lon": 101.669249, "tags": {"amenity": "recycling", "level": "0", "recycling_type": "container"}}, {"type": "node", "id": 9509924208, "lat": 3.1297639, "lon": 101.6611347}, {"type": "node", "id": 9509924209, "lat": 3.1297727, "lon": 101.6611759}, {"type": "node", "id": 9509924210, "lat": 3.1297093, "lon": 101.6611465}, {"type": "node", "id": 9521163954, "lat": 3.1263612, "lon": 101.6534474}, {"type": "node", "id": 9521163955, "lat": 3.1263422, "lon": 101.6534834}, {"type": "node", "id": 9521163956, "lat": 3.126318, "lon": 101.6534706}, {"type": "node", "id": 9521163957, "lat": 3.126337, "lon": 101.6534345}, {"type": "node", "id": 10095402706, "lat": 3.1637946, "lon": 101.6940806, "tags": {"amenity": "recycling", "name": "Pusat Kitar Semula MP Tiong Nam", "name:ms": "Pusat Kitar Semula MP Tiong Nam", "recycling_type": "centre"}}, {"type": "node", "id": 10287728543, "lat": 3.1026995, "lon": 101.7506289, "tags": {"amenity": "recycling", "recycling_type": "container"}}, {"type": "node", "id": 10287728544, "lat": 3.103195, "lon": 101.7504922, "tags": {"amenity": "recycling", "recycling_type": "centre"}}, {"type": "node", "id": 10727741018, "lat": 3.0812488, "lon": 101.6984037, "tags": {"amenity": "recycling", "name": "Sungai Besi Recycle", "name:en": "Sungai Besi Recycle", "recycling_type": "centre", "source": "https://www.mapillary.com/app/?pKey=3011033559166130"}}, {"type": "node", "id": 10747886398, "lat": 3.1190894, "lon": 101.6532106}, {"type": "node", "id": 10902674915, "lat": 3.1547194, "lon": 101.6980195, "tags": {"amenity": "recycling", "name": "Pusat Kitar Semula Jalan Bunus 6", "name:ms": "Pusat Kitar Semula Jalan Bunus 6", "recycling_type": "centre"}}, {"type": "node", "id": 11214865733, "lat": 3.1113717, "lon": 101.7043568}, {"type": "node", "id": 11214865734, "lat": 3.111349, "lon": 101.7043917}, {"type": "node", "id": 11214865735, "lat": 3.1113436, "lon": 101.7045137}, {"type": "node", "id": 11214865736, "lat": 3.1111012, "lon": 101.7045231}, {"type": "node", "id": 11214865737, "lat": 3.1110959, "lon": 101.7043313}, {"type": "node", "id": 11214865738, "lat": 3.1111843, "lon": 101.7042187}, {"type": "node", "id": 11214865739, "lat": 3.110883, "lon": 101.7040028}, {"type": "node", "id": 11214865740, "lat": 3.1109151, "lon": 101.7047028}, {"type": "node", "id": 11214865741, "lat": 3.1114387, "lon": 101.7046881}, {"type": "node", "id": 11214865742, "lat": 3.1114387, "lon": 101.7045379}, {"type": "node", "id": 11214865743, "lat": 3.1114655, "lon": 101.70444}, {"type": "node", "id": 11250506478, "lat": 3.2101241, "lon": 101.6673627, "tags": {"amenity": "recycling", "operator": "Community Recycle for Charity (CRC)", "recycling:cans": "yes", "recycling:cardboard": "yes", "recycling:glass_bottles": "yes", "recycling:paper": "yes", "recycling:plastic": "yes", "recycling_type": "container", "website": "http://crcbox.org/"}}, {"type": "node", "id": 11350500394, "lat": 3.1219238, "lon": 101.6571256, "tags": {"amenity": "recycling", "recycling:cans": "yes", "recycling:paper": "yes", "recycling:plastic": "yes", "recycling_type": "container"}}, {"type": "node", "id": 11377790966, "lat": 3.0931299, "lon": 101.6761115}, {"type": "node", "id": 11377790967, "lat": 3.0930888, "lon": 101.6762902}, {"type": "node", "id": 11377790968, "lat": 3.0930545, "lon": 101.6762823}, {"type": "node", "id": 11377807369, "lat": 3.0930955, "lon": 101.6761035}, {"type": "node", "id": 11932211411, "lat": 3.1551019, "lon": 101.715226, "tags": {"amenity": "waste_disposal"}}, {"type": "node", "id": 11932310369, "lat": 3.154954, "lon": 101.7141546, "tags": {"amenity": "waste_disposal"}}, {"type": "node", "id": 12076280963, "lat": 3.1137767, "lon": 101.6818287, "tags": {"amenity": "recycling", "recycling_type": "centre"}}, {"type": "node", "id": 12122520933, "lat": 3.1067408, "lon": 101.6683481, "tags": {"amenity": "waste_disposal", "name": "Pusat Pembuangan Sampah"}}, {"type": "node", "id": 12122520934, "lat": 3.1063814, "lon": 101.6683619, "tags": {"amenity": "waste_disposal", "name": "Pusat Pembuangan Sampah"}}, {"type": "node", "id": 12133170500, "lat": 3.1690252, "lon": 101.7061188, "tags": {"amenity": "recycling", "recycling_type": "centre"}}, {"type": "node", "id": 12152852523, "lat": 3.1378644, "lon": 101.6877551, "tags": {"amenity": "recycling", "opening_hours": "24/7", "recycling:aluminium": "yes", "recycling:glass_bottles": "yes", "recycling:paper": "yes", "recycling:plastic": "yes", "recycling_type": "container"}}, {"type": "node", "id": 12167240035, "lat": 3.1743674, "lon": 101.7201034, "tags": {"amenity": "recycling", "recycling:metal": "yes", "recycling:paper": "yes", "recycling:plastic": "yes", "recycling_type": "container"}}, {"type": "node", "id": 12167240036, "lat": 3.1743384, "lon": 101.7203317, "tags": {"amenity": "recycling", "recycling:electrical_items": "yes", "recycling_type": "container"}}, {"type": "node", "id": 12214321078, "lat": 3.2124715, "lon": 101.6695357, "tags": {"amenity": "recycling", "recycling_type": "container"}}, {"type": "node", "id": 12245870616, "lat": 3.2123445, "lon": 101.6695251, "tags": {"amenity": "recycling", "recycling:bedding": "yes", "recycling:clothes": "yes", "recycling:paper": "yes", "recycling:shoes": "yes", "recycling_type": "container"}}, {"type": "node", "id": 12260385272, "lat": 3.1677123, "lon": 101.6993189, "tags": {"amenity": "recycling", "recycling_type": "centre"}}, {"type": "node", "id": 12277770905, "lat": 3.1219857, "lon": 101.6546107, "tags": {"amenity": "recycling", "recycling:cans": "yes", "recycling:glass_bottles": "yes", "recycling:paper": "yes", "recycling:plastic": "yes", "recycling_type": "container"}}, {"type": "node", "id": 12609067039, "lat": 3.2018334, "lon": 101.6659674, "tags": {"amenity": "recycling", "fixme": "Name correct?", "name": "Murabana", "recycling_type": "centre"}}, {"type": "way", "id": 169403448, "nodes": [1805704286, 1805704318, 1805704206, 1805704342, 1805704337, 1805704392, 1805704328, 1805704376, 1805704265, 1805704272, 1805704212, 1805704209, 1805704330, 1805704386, 1805704368, 1805704160, 1805704364, 1805704334, 1805704286], "tags": {"amenity": "recycling"}}, {"type": "way", "id": 358003520, "nodes": [3630553155, 3630553156, 3630553157, 3630553158, 3630553155], "tags": {"access": "private", "amenity": "waste_disposal", "building": "yes", "name": "Tempat Sampah", "operator": "Universiti Malaya", "operator:short": "UM", "operator:type": "university", "operator:wikidata": "Q1142924"}}, {"type": "way", "id": 359491727, "nodes": [3641988005, 3641988006, 3641988007, 3641988008, 3641988005], "tags": {"access": "yes", "amenity": "waste_disposal", "building": "yes", "name": "Tempat Sampah", "name:ms": "Tempat Sampah", "operator": "Universiti Malaya", "operator:short": "UM", "operator:type": "university", "operator:wikidata": "Q1142924"}}, {"type": "way", "id": 576933478, "nodes": [7520856892, 7520856893, 7520856894, 7520856895, 7520856892], "tags": {"amenity": "recycling", "recycling_type": "container"}}, {"type": "way", "id": 692365936, "nodes": [6499211079, 6499211080, 6499211081, 6499211082, 6499211079], "tags": {"addr:city": "Kuala Lumpur", "addr:postcode": "51100", "addr:street": "Jalan Saint Thomas", "amenity": "recycling", "building": "school", "operator": "Chong Hwa Independent High School Kuala Lumpur", "operator:type": "private", "recycling:glass": "yes", "recycling:paper": "yes", "recycling:plastic": "yes", "recycling_type": "centre", "school": "\u5783\u573e\u56de\u6536\u533a\u57df"}}, {"type": "way", "id": 804078331, "nodes": [7520838666, 7520838667, 7520838668, 7520838669, 7520838670, 7520838666], "tags": {"amenity": "recycling", "name": "Tzu Chi Recycling Center", "name:zh": "\u6148\u6fdf\u8cc7\u6e90\u56de\u6536\u7ad9", "recycling_type": "centre", "website": "https://www.tzuchi.my/"}}, {"type": "way", "id": 996004835, "nodes": [9197001726, 9197001727, 9197001728, 9197001729, 9197001726], "tags": {"amenity": "waste_disposal", "operator": "Universiti Malaya", "operator:short": "UM", "operator:type": "university", "operator:wikidata": "Q1142924", "smoking": "no", "wheelchair": "yes"}}, {"type": "way", "id": 996005312, "nodes": [9197002589, 9197002590, 9197002591, 9197002592, 10747886398, 9197002589], "tags": {"access": "private", "amenity": "waste_disposal", "building": "yes", "operator": "Universiti Malaya", "operator:short": "UM", "operator:type": "university", "operator:wikidata": "Q1142924"}}, {"type": "way", "id": 1012650977, "nodes": [9342500739, 9342500740, 9342500741, 9342500742, 9342500743, 9342500739], "tags": {"addr:city": "Kuala Lumpur", "addr:street": "Jalan Rungkup 1", "amenity": "recycling", "description": "Strictly for government purpose only, not allowed for illegal occupation", "name": "DBKL Government River Reserved Land", "name:en": "DBKL Government River Reserved Land", "operator": "DBKL", "operator:type": "private", "recycling:cans": "yes", "recycling:electrical_appliances": "yes", "recycling:scrap_metal": "yes", "recycling_type": "centre"}}, {"type": "way", "id": 1031055112, "nodes": [9503857926, 9503857927, 9503857928, 9503857929, 9503857926], "tags": {"access": "yes", "amenity": "waste_disposal", "building": "yes", "name": "Tempat Sampah", "name:ms": "Tempat Sampah"}}, {"type": "way", "id": 1031930267, "nodes": [9509924208, 9509924209, 9197053260, 9509924210, 9509924208], "tags": {"access": "private", "amenity": "waste_disposal", "building": "yes", "name": "Tempat Sampah", "name:ms": "Tempat Sampah", "operator": "Universiti Malaya", "operator:short": "UM", "operator:type": "university", "operator:wikidata": "Q1142924"}}, {"type": "way", "id": 1033418698, "nodes": [9521163954, 9521163955, 9521163956, 9521163957, 9521163954], "tags": {"access": "yes", "amenity": "waste_disposal", "building": "yes", "name": "J37 - Trash House", "name:en": "J37 - Trash House", "operator": "Universiti Malaya", "operator:short": "UM", "operator:type": "university", "operator:wikidata": "Q1142924"}}, {"type": "way", "id": 1210466023, "nodes": [11214865743, 11214865742, 11214865741, 11214865740, 11214865739, 11214865738, 11214865737, 11214865736, 11214865735, 11214865734, 11214865733, 11214865743], "tags": {"amenity": "recycling", "building": "yes", "name": "Perniagaan Logam Krishna Sdn Bhd", "recycling:scrap_metal": "yes", "recycling_type": "centre"}}, {"type": "way", "id": 1226958508, "nodes": [11377790966, 11377790967, 11377790968, 11377807369, 11377790966], "tags": {"amenity": "recycling", "building": "yes", "name": "\u5d07\u6587\u8d44\u6e90\u56de\u6536\u4e2d\u5fc3", "recycling_type": "centre"}}]}